NORAD_CAT_ID,OBJECT_NAME,OBJECT_TYPE,EPOCH,MEAN_MOTION,ECCENTRICITY,INCLINATION,RA_OF_ASC_NODE,ARG_OF_PERICENTER,MEAN_ANOMALY,BSTAR,MEAN_MOTION_DOT,MEAN_MOTION_DDOT,TLE_LINE0,TLE_LINE1,TLE_LINE2,SEMIMAJOR_AXIS,PERIOD,APOGEE,PERIGEE,DECAYED
53161.0,STARLINK-4055,PAYLOAD,2023-07-06 12:34:44,15.0884332,8.99e-05,53.2163,230.788,78.1018,282.0075,0.00011814,1.593e-05,0.0,0 STARLINK-4055,1 53161U 22083AF  23187.52412746  .00001593  00000-0  11814-3 0  9999,2 53161  53.2163 230.7880 0000899  78.1018 282.0075 15.08843320 54475,6917.87,95.437,540.357,539.113,0.0
53161.0,STARLINK-4055,PAYLOAD,2023-07-08 02:44:00,15.08840989,8.85e-05,53.2155,223.6498,91.4146,268.6947,4.3444e-05,4.04e-06,0.0,0 STARLINK-4055,1 53161U 22083AF  23189.11388941  .00000404  00000-0  43444-4 0  9990,2 53161  53.2155 223.6498 0000885  91.4146 268.6947 15.08840989 54710,6917.877,95.437,540.355,539.13,0.0
53161.0,STARLINK-4055,PAYLOAD,2023-07-09 02:34:47,15.08834615,9.31e-05,53.2163,219.1912,83.3925,276.7173,-4.9329e-05,-1.073e-05,0.0,0 STARLINK-4055,1 53161U 22083AF  23190.10749609 -.00001073  00000-0 -49329-4 0  9996,2 53161  53.2163 219.1912 0000931  83.3925 276.7173 15.08834615 54863,6917.897,95.438,540.406,539.118,0.0
53161.0,STARLINK-4055,PAYLOAD,2023-07-10 10:22:30,15.08833864,9.41e-05,53.2164,213.2441,80.0408,280.0691,3.7472e-05,3.09e-06,0.0,0 STARLINK-4055,1 53161U 22083AF  23191.43229848  .00000309  00000-0  37472-4 0  9996,2 53161  53.2164 213.2441 0000941  80.0408 280.0691 15.08833864 55068,6917.899,95.438,540.415,539.113,0.0
53161.0,STARLINK-4055,PAYLOAD,2023-07-11 18:10:13,15.08839684,9.43e-05,53.2162,207.2963,75.0759,285.0338,0.0001024,1.342e-05,0.0,0 STARLINK-4055,1 53161U 22083AF  23192.75709686  .00001342  00000-0  10240-3 0  9996,2 53161  53.2162 207.2963 0000943  75.0759 285.0338 15.08839684 55264,6917.881,95.438,540.399,539.094,0.0
53161.0,STARLINK-4055,PAYLOAD,2023-07-13 09:54:51,15.08846416,0.0001004,53.2162,199.8616,79.4181,280.6925,6.8677e-05,8.06e-06,0.0,0 STARLINK-4055,1 53161U 22083AF  23194.41309285  .00000806  00000-0  68677-4 0  9994,2 53161  53.2162 199.8616 0001004  79.4181 280.6925 15.08846416 55513,6917.861,95.437,540.42,539.031,0.0
53161.0,STARLINK-4055,PAYLOAD,2023-07-14 06:34:52,15.0884257,0.0001033,53.2161,195.9957,80.4433,279.6676,4.4174e-05,4.15e-06,0.0,0 STARLINK-4055,1 53161U 22083AF  23195.27421450  .00000415  00000-0  44174-4 0  9990,2 53161  53.2161 195.9957 0001033  80.4433 279.6676 15.08842570 55643,6917.873,95.437,540.452,539.023,0.0
53161.0,STARLINK-4055,PAYLOAD,2023-07-16 09:27:13,15.0883284,0.000109,53.2165,186.4806,83.9122,276.1994,-1.21e-05,-4.8e-06,0.0,0 STARLINK-4055,1 53161U 22083AF  23197.39390110 -.00000480  00000-0 -12100-4 0  9991,2 53161  53.2165 186.4806 0001090  83.9122 276.1994 15.08832840 55960,6917.902,95.438,540.521,539.013,0.0
53161.0,STARLINK-4055,PAYLOAD,2023-07-17 09:17:59,15.08839794,0.0001072,53.2164,182.0205,85.0675,275.0439,3.269e-05,2.33e-06,0.0,0 STARLINK-4055,1 53161U 22083AF  23198.38749764  .00000233  00000-0  32690-4 0  9994,2 53161  53.2164 182.0205 0001072  85.0675 275.0439 15.08839794 56115,6917.881,95.438,540.488,539.004,0.0
53161.0,STARLINK-4055,PAYLOAD,2023-07-17 23:36:28,15.08833309,0.0001041,53.2164,179.3441,83.5416,276.5695,6.5787e-05,7.59e-06,0.0,0 STARLINK-4055,1 53161U 22083AF  23198.98366229  .00000759  00000-0  65787-4 0  9997,2 53161  53.2164 179.3441 0001041  83.5416 276.5695 15.08833309 56204,6917.901,95.438,540.486,539.046,0.0
53161.0,STARLINK-4055,PAYLOAD,2023-07-19 02:38:01,15.08838043,0.00011,53.2168,174.2892,86.0703,274.0415,5.294e-05,5.55e-06,0.0,0 STARLINK-4055,1 53161U 22083AF  23200.10974242  .00000555  00000-0  52940-4 0  9996,2 53161  53.2168 174.2892 0001100  86.0703 274.0415 15.08838043 56376,6917.886,95.438,540.512,538.99,0.0
53161.0,STARLINK-4055,PAYLOAD,2023-07-20 23:08:49,15.08841156,0.0001177,53.2167,165.9622,85.2661,274.8466,6.1606e-05,6.93e-06,0.0,0 STARLINK-4055,1 53161U 22083AF  23201.96446402  .00000693  00000-0  61606-4 0  9995,2 53161  53.2167 165.9622 0001177  85.2661 274.8466 15.08841156 56655,6917.877,95.437,540.556,538.928,0.0
53161.0,STARLINK-4055,PAYLOAD,2023-07-21 07:05:44,15.08846718,0.0001201,53.2167,164.4752,85.5471,274.5659,0.00010397,1.368e-05,0.0,0 STARLINK-4055,1 53161U 22083AF  23202.29565861  .00001368  00000-0  10397-3 0  9993,2 53161  53.2167 164.4752 0001201  85.5471 274.5659 15.08846718 56709,6917.86,95.437,540.556,538.894,0.0
53161.0,STARLINK-4055,PAYLOAD,2023-07-23 06:47:19,15.08845461,0.0001376,53.2172,155.5517,93.0633,267.0517,1.9539e-05,2.3e-07,0.0,0 STARLINK-4055,1 53161U 22083AF  23204.28286118  .00000023  00000-0  19539-4 0  9994,2 53161  53.2172 155.5517 0001376  93.0633 267.0517 15.08845461 56379,6917.864,95.437,540.681,538.777,0.0
53161.0,STARLINK-4055,PAYLOAD,2023-07-25 04:53:30,15.08838378,0.0001553,53.2172,146.9264,104.8384,255.278,3.0813e-05,2.02e-06,0.0,0 STARLINK-4055,1 53161U 22083AF  23206.20382981  .00000202  00000-0  30813-4 0  9990,2 53161  53.2172 146.9264 0001553 104.8384 255.2780 15.08838378 56665,6917.885,95.438,540.825,538.676,0.0
53161.0,STARLINK-4055,PAYLOAD,2023-07-26 04:44:18,15.08839167,0.0001379,53.2167,142.4655,91.1724,268.9426,5.7653e-05,6.3e-06,0.0,0 STARLINK-4055,1 53161U 22083AF  23207.19743286  .00000630  00000-0  57653-4 0  9994,2 53161  53.2167 142.4655 0001379  91.1724 268.9426 15.08839167 56818,6917.883,95.438,540.702,538.794,0.0
53161.0,STARLINK-4055,PAYLOAD,2023-07-26 23:48:55,15.08845876,0.0001221,53.2174,138.901,89.7551,270.3581,8.6804e-05,1.094e-05,0.0,0 STARLINK-4055,1 53161U 22083AF  23207.99230640  .00001094  00000-0  86804-4 0  9992,2 53161  53.2174 138.9010 0001221  89.7551 270.3581 15.08845876 57564,6917.862,95.437,540.572,538.883,0.0
53161.0,STARLINK-4055,PAYLOAD,2023-07-27 04:35:04,15.08850119,0.0001261,53.2176,138.0092,91.7044,268.4092,0.00012023,1.627e-05,0.0,0 STARLINK-4055,1 53161U 22083AF  23208.19102194  .00001627  00000-0  12023-3 0  9990,2 53161  53.2176 138.0092 0001261  91.7044 268.4092 15.08850119 56965,6917.849,95.437,540.587,538.842,0.0
53161.0,STARLINK-4055,PAYLOAD,2023-07-28 01:15:07,15.08829458,0.0001284,53.2176,134.1447,96.3455,263.7683,-8.925e-05,-1.708e-05,0.0,0 STARLINK-4055,1 53161U 22083AF  23209.05216508 -.00001708  00000-0 -89250-4 0  9990,2 53161  53.2176 134.1447 0001284  96.3455 263.7683 15.08829458 57729,6917.913,95.438,540.666,538.889,0.0
53161.0,STARLINK-4055,PAYLOAD,2023-07-28 04:25:53,15.08831732,0.0001291,53.2176,133.5497,73.3934,286.72,-6.2319e-05,-1.279e-05,0.0,0 STARLINK-4055,1 53161U 22083AF  23209.18464466 -.00001279  00000-0 -62319-4 0  9992,2 53161  53.2176 133.5497 0001291  73.3934 286.7200 15.08831732 57113,6917.906,95.438,540.664,538.878,0.0
53161.0,STARLINK-4055,PAYLOAD,2023-07-29 01:05:52,15.08849982,0.0001258,53.2171,129.6883,75.4069,284.7062,-4.2637e-05,-9.67e-06,0.0,0 STARLINK-4055,1 53161U 22083AF  23210.04575095 -.00000967  00000-0 -42637-4 0  9994,2 53161  53.2171 129.6883 0001258  75.4069 284.7062 15.08849982 57871,6917.85,95.437,540.585,538.845,0.0
53161.0,STARLINK-4055,PAYLOAD,2023-07-30 00:56:40,15.08841994,0.0001468,53.218,125.2217,98.8028,261.3131,5.2362e-05,5.46e-06,0.0,0 STARLINK-4055,1 53161U 22083AF  23211.03935328  .00000546  00000-0  52362-4 0  9990,2 53161  53.2180 125.2217 0001468  98.8028 261.3131 15.08841994 58022,6917.874,95.437,540.755,538.724,0.0
53161.0,STARLINK-4055,PAYLOAD,2023-07-31 02:22:50,15.0884734,0.0001298,53.2178,120.4644,94.1917,265.9224,-4.0736e-05,-9.36e-06,0.0,0 STARLINK-4055,1 53161U 22083AF  23212.09919162 -.00000936  00000-0 -40736-4 0  9992,2 53161  53.2178 120.4644 0001298  94.1917 265.9224 15.08847340 58188,6917.858,95.437,540.621,538.825,0.0
53161.0,STARLINK-4055,PAYLOAD,2023-07-31 18:16:42,15.08832886,0.0001223,53.2173,117.4912,99.5348,260.5782,-7.7488e-05,-1.521e-05,0.0,0 STARLINK-4055,1 53161U 22083AF  23212.76160355 -.00001521  00000-0 -77488-4 0  9993,2 53161  53.2173 117.4912 0001223  99.5348 260.5782 15.08832886 58282,6917.902,95.438,540.613,538.921,0.0
53161.0,STARLINK-4055,PAYLOAD,2023-08-01 22:53:38,15.08838205,0.0001208,53.2172,112.1397,101.1633,258.9494,1.909e-05,1.6e-07,0.0,0 STARLINK-4055,1 53161U 22083AF  23213.95392206  .00000016  00000-0  19090-4 0  9998,2 53161  53.2172 112.1397 0001208 101.1633 258.9494 15.08838205 58462,6917.886,95.438,540.587,538.915,0.0
53161.0,STARLINK-4055,PAYLOAD,2023-08-03 01:55:11,15.08846446,0.0001181,53.2182,107.0862,86.9737,273.139,0.00017215,2.453e-05,0.0,0 STARLINK-4055,1 53161U 22083AF  23215.07999500  .00002453  00000-0  17215-3 0  9996,2 53161  53.2182 107.0862 0001181  86.9737 273.1390 15.08846446 58637,6917.861,95.437,540.543,538.909,0.0
53161.0,STARLINK-4055,PAYLOAD,2023-08-04 01:45:59,15.08842889,0.0001266,53.2183,102.6226,68.6416,291.4711,8.3846e-06,-1.54e-06,0.0,0 STARLINK-4055,1 53161U 22083AF  23216.07360494 -.00000154  00000-0  83846-5 0  9993,2 53161  53.2183 102.6226 0001266  68.6416 291.4711 15.08842889 58781,6917.872,95.437,540.612,538.861,0.0
53161.0,STARLINK-4055,PAYLOAD,2023-08-06 01:27:31,15.0885733,0.0001018,53.2175,93.7034,89.9815,270.1294,0.00017113,2.438e-05,0.0,0 STARLINK-4055,1 53161U 22083AF  23218.06078673  .00002438  00000-0  17113-3 0  9997,2 53161  53.2175  93.7034 0001018  89.9815 270.1294 15.08857330 59084,6917.827,95.436,540.397,538.988,0.0
53161.0,STARLINK-4055,PAYLOAD,2023-08-06 09:24:29,15.08833586,9.92e-05,53.2179,92.2171,87.9818,272.1288,-1.479e-05,-5.23e-06,0.0,0 STARLINK-4055,1 53161U 22083AF  23218.39200658 -.00000523  00000-0 -14790-4 0  9997,2 53161  53.2179  92.2171 0000992  87.9818 272.1288 15.08833586 59133,6917.9,95.438,540.451,539.079,0.0
53161.0,STARLINK-4055,PAYLOAD,2023-08-06 17:21:25,15.08827449,8.99e-05,53.2186,90.7291,121.7368,238.3712,-0.0001238,-2.257e-05,0.0,0 STARLINK-4055,1 53161U 22083AF  23218.72321515 -.00002257  00000-0 -12380-3 0  9998,2 53161  53.2186  90.7291 0000899 121.7368 238.3712 15.08827449 59182,6917.919,95.438,540.406,539.162,0.0
